{"type": "FeatureCollection", "features": [ {"type": "Feature", "properties": {"norad_id": 67070, "name": "DEAR-5", "group": "last-30-days", "lat": 14.001783955393455, "lon": -172.59623924178626, "alt_km": 503.44976505945124, "timestamp": "2025-12-26T08:37:53.294535+00:00", "meta": {"OBJECT_NAME": "DEAR-5", "OBJECT_ID": "2025-296B", "EPOCH": "2025-12-23T23:03:08.623008", "MEAN_MOTION": 15.16917161, "ECCENTRICITY": 0.0016166, "INCLINATION": 41.3551, "RA_OF_ASC_NODE": 37.5614, "ARG_OF_PERICENTER": 107.8349, "MEAN_ANOMALY": 252.4237, "EPHEMERIS_TYPE": 0, "CLASSIFICATION_TYPE": "U", "NORAD_CAT_ID": 67070, "ELEMENT_SET_NO": 999, "REV_AT_EPOCH": 165, "BSTAR": 0.0002755, "MEAN_MOTION_DOT": 5.352e-05, "MEAN_MOTION_DDOT": 0}, "tle": {"line1": "1 67070U 25296B   25357.96051647  .00005352  00000+0  27550-3 0  9990", "line2": "2 67070  41.3551  37.5614 0016166 107.8349 252.4237 15.16917161  1654"}}, "geometry": {"type": "Point", "coordinates": [-172.59623924178626, 14.001783955393455]}}, {"type": "Feature", "properties": {"norad_id": 67071, "name": "KZ-11 R/B", "group": "last-30-days", "lat": 12.154668043392178, "lon": -170.19390877011742, "alt_km": 261.34443463720436, "timestamp": "2025-12-26T08:37:53.294549+00:00", "meta": {"OBJECT_NAME": "KZ-11 R/B", "OBJECT_ID": "2025-296C", "EPOCH": "2025-12-24T07:54:11.602080", "MEAN_MOTION": 15.73894626, "ECCENTRICITY": 0.03315074, "INCLINATION": 41.3001, "RA_OF_ASC_NODE": 37.0775, "ARG_OF_PERICENTER": 35.4688, "MEAN_ANOMALY": 326.7718, "EPHEMERIS_TYPE": 0, "CLASSIFICATION_TYPE": "U", "NORAD_CAT_ID": 67071, "ELEMENT_SET_NO": 999, "REV_AT_EPOCH": 169, "BSTAR": 0.00038975112, "MEAN_MOTION_DOT": 0.10609436, "MEAN_MOTION_DDOT": 7.766669e-06}, "tle": {"line1": "1 67071U 25296C   25358.32930095  .10609436  77667-5  38975-3 0  9991", "line2": "2 67071  41.3001  37.0775 0331507  35.4688 326.7718 15.73894626  1695"}}, "geometry": {"type": "Point", "coordinates": [-170.19390877011742, 12.154668043392178]}}, {"type": "Feature", "properties": {"norad_id": 67073, "name": "RAISE-4", "group": "last-30-days", "lat": -81.7201734153113, "lon": -147.83608031189638, "alt_km": 543.9500034446428, "timestamp": "2025-12-26T08:37:53.294560+00:00", "meta": {"OBJECT_NAME": "RAISE-4", "OBJECT_ID": "2025-297B", "EPOCH": "2025-12-25T21:51:39.079008", "MEAN_MOTION": 15.07237028, "ECCENTRICITY": 0.001165, "INCLINATION": 97.4853, "RA_OF_ASC_NODE": 147.1048, "ARG_OF_PERICENTER": 271.3968, "MEAN_ANOMALY": 88.5925, "EPHEMERIS_TYPE": 0, "CLASSIFICATION_TYPE": "U", "NORAD_CAT_ID": 67073, "ELEMENT_SET_NO": 999, "REV_AT_EPOCH": 177, "BSTAR": 0.00035355175, "MEAN_MOTION_DOT": 5.275e-05, "MEAN_MOTION_DDOT": 0}, "tle": {"line1": "1 67073U 25297B   25359.91086897  .00005275  00000+0  35355-3 0  9992", "line2": "2 67073  97.4853 147.1048 0011650 271.3968  88.5925 15.07237028  1772"}}, "geometry": {"type": "Point", "coordinates": [-147.83608031189638, -81.7201734153113]}}, {"type": "Feature", "properties": {"norad_id": 67074, "name": "ELECTRON KICK STAGE R/B", "group": "last-30-days", "lat": -69.5185436184316, "lon": 169.08706089314848, "alt_km": 345.76514869920265, "timestamp": "2025-12-26T08:37:53.294570+00:00", "meta": {"OBJECT_NAME": "ELECTRON KICK STAGE R/B", "OBJECT_ID": "2025-297C", "EPOCH": "2025-12-25T23:42:12.159936", "MEAN_MOTION": 15.60381011, "ECCENTRICITY": 0.0188179, "INCLINATION": 97.4815, "RA_OF_ASC_NODE": 148.0945, "ARG_OF_PERICENTER": 221.4493, "MEAN_ANOMALY": 137.2363, "EPHEMERIS_TYPE": 0, "CLASSIFICATION_TYPE": "U", "NORAD_CAT_ID": 67074, "ELEMENT_SET_NO": 999, "REV_AT_EPOCH": 184, "BSTAR": 0.0017982, "MEAN_MOTION_DOT": 0.00359366, "MEAN_MOTION_DDOT": 3.7348e-05}, "tle": {"line1": "1 67074U 25297C   25359.98764074  .00359366  37348-4  17982-2 0  9998", "line2": "2 67074  97.4815 148.0945 0188179 221.4493 137.2363 15.60381011  1844"}}, "geometry": {"type": "Point", "coordinates": [169.08706089314848, -69.5185436184316]}}, {"type": "Feature", "properties": {"norad_id": 67075, "name": "STARLINK-36230", "group": "last-30-days", "lat": 56.1847430961308, "lon": -1.6971320322277825, "alt_km": 336.4773315659022, "timestamp": "2025-12-26T08:37:53.294580+00:00", "meta": {"OBJECT_NAME": "STARLINK-36230", "OBJECT_ID": "2025-298A", "EPOCH": "2025-12-26T04:00:01.998720", "MEAN_MOTION": 15.77331927, "ECCENTRICITY": 0.0003768, "INCLINATION": 69.9968, "RA_OF_ASC_NODE": 211.7984, "ARG_OF_PERICENTER": 277.4552, "MEAN_ANOMALY": 185.2756, "EPHEMERIS_TYPE": 0, "CLASSIFICATION_TYPE": "U", "NORAD_CAT_ID": 67075, "ELEMENT_SET_NO": 999, "REV_AT_EPOCH": 313, "BSTAR": -0.012161, "MEAN_MOTION_DOT": -0.01770132, "MEAN_MOTION_DDOT": 0}, "tle": {"line1": "1 67075U 25298A   25360.16668980 -.01770132  00000+0 -12161-1 0  9995", "line2": "2 67075  69.9968 211.7984 0003768 277.4552 185.2756 15.77331927  3138"}}, "geometry": {"type": "Point", "coordinates": [-1.6971320322277825, 56.1847430961308]}}, {"type": "Feature", "properties": {"norad_id": 67076, "name": "STARLINK-36240", "group": "last-30-days", "lat": 54.640611382900396, "lon": 0.3579490781386268, "alt_km": 336.4257046292714, "timestamp": "2025-12-26T08:37:53.294590+00:00", "meta": {"OBJECT_NAME": "STARLINK-36240", "OBJECT_ID": "2025-298B", "EPOCH": "2025-12-26T04:00:01.998720", "MEAN_MOTION": 15.77330102, "ECCENTRICITY": 0.0003473, "INCLINATION": 69.9967, "RA_OF_ASC_NODE": 211.796, "ARG_OF_PERICENTER": 275.3092, "MEAN_ANOMALY": 189.3566, "EPHEMERIS_TYPE": 0, "CLASSIFICATION_TYPE": "U", "NORAD_CAT_ID": 67076, "ELEMENT_SET_NO": 999, "REV_AT_EPOCH": 313, "BSTAR": -0.012152, "MEAN_MOTION_DOT": -0.01768583, "MEAN_MOTION_DDOT": 0}, "tle": {"line1": "1 67076U 25298B   25360.16668980 -.01768583  00000+0 -12152-1 0  9993", "line2": "2 67076  69.9967 211.7960 0003473 275.3092 189.3566 15.77330102  3139"}}, "geometry": {"type": "Point", "coordinates": [0.3579490781386268, 54.640611382900396]}}, {"type": "Feature", "properties": {"norad_id": 67077, "name": "STARLINK-36243", "group": "last-30-days", "lat": 52.85933156174328, "lon": 2.495349935338194, "alt_km": 336.8587313328562, "timestamp": "2025-12-26T08:37:53.294603+00:00", "meta": {"OBJECT_NAME": "STARLINK-36243", "OBJECT_ID": "2025-298C", "EPOCH": "2025-12-26T04:00:01.998720", "MEAN_MOTION": 15.77319548, "ECCENTRICITY": 0.0003724, "INCLINATION": 69.9965, "RA_OF_ASC_NODE": 211.7933, "ARG_OF_PERICENTER": 278.0299, "MEAN_ANOMALY": 188.8252, "EPHEMERIS_TYPE": 0, "CLASSIFICATION_TYPE": "U", "NORAD_CAT_ID": 67077, "ELEMENT_SET_NO": 999, "REV_AT_EPOCH": 313, "BSTAR": -0.012161, "MEAN_MOTION_DOT": -0.01769279, "MEAN_MOTION_DDOT": 0}, "tle": {"line1": "1 67077U 25298C   25360.16668980 -.01769279  00000+0 -12161-1 0  9997", "line2": "2 67077  69.9965 211.7933 0003724 278.0299 188.8252 15.77319548  3133"}}, "geometry": {"type": "Point", "coordinates": [2.495349935338194, 52.85933156174328]}}, {"type": "Feature", "properties": {"norad_id": 67078, "name": "STARLINK-36236", "group": "last-30-days", "lat": 51.34457174800271, "lon": 4.149821704966705, "alt_km": 337.003635605206, "timestamp": "2025-12-26T08:37:53.294613+00:00", "meta": {"OBJECT_NAME": "STARLINK-36236", "OBJECT_ID": "2025-298D", "EPOCH": "2025-12-26T04:00:01.998720", "MEAN_MOTION": 15.77323604, "ECCENTRICITY": 0.0003695, "INCLINATION": 69.997, "RA_OF_ASC_NODE": 211.7911, "ARG_OF_PERICENTER": 278.0924, "MEAN_ANOMALY": 190.5826, "EPHEMERIS_TYPE": 0, "CLASSIFICATION_TYPE": "U", "NORAD_CAT_ID": 67078, "ELEMENT_SET_NO": 999, "REV_AT_EPOCH": 313, "BSTAR": -0.012159, "MEAN_MOTION_DOT": -0.01769265, "MEAN_MOTION_DDOT": 0}, "tle": {"line1": "1 67078U 25298D   25360.16668980 -.01769265  00000+0 -12159-1 0  9990", "line2": "2 67078  69.9970 211.7911 0003695 278.0924 190.5826 15.77323604  3133"}}, "geometry": {"type": "Point", "coordinates": [4.149821704966705, 51.34457174800271]}}, {"type": "Feature", "properties": {"norad_id": 67079, "name": "STARLINK-36159", "group": "last-30-days", "lat": 49.49177682211023, "lon": 5.999807995941296, "alt_km": 337.2941156781162, "timestamp": "2025-12-26T08:37:53.294623+00:00", "meta": {"OBJECT_NAME": "STARLINK-36159", "OBJECT_ID": "2025-298E", "EPOCH": "2025-12-26T04:00:01.998720", "MEAN_MOTION": 15.77309915, "ECCENTRICITY": 0.0003737, "INCLINATION": 69.9968, "RA_OF_ASC_NODE": 211.7881, "ARG_OF_PERICENTER": 278.6644, "MEAN_ANOMALY": 192.2143, "EPHEMERIS_TYPE": 0, "CLASSIFICATION_TYPE": "U", "NORAD_CAT_ID": 67079, "ELEMENT_SET_NO": 999, "REV_AT_EPOCH": 313, "BSTAR": -0.012153, "MEAN_MOTION_DOT": -0.01767546, "MEAN_MOTION_DDOT": 0}, "tle": {"line1": "1 67079U 25298E   25360.16668980 -.01767546  00000+0 -12153-1 0  9995", "line2": "2 67079  69.9968 211.7881 0003737 278.6644 192.2143 15.77309915  3139"}}, "geometry": {"type": "Point", "coordinates": [5.999807995941296, 49.49177682211023]}}, {"type": "Feature", "properties": {"norad_id": 67080, "name": "STARLINK-36158", "group": "last-30-days", "lat": 47.69158622332419, "lon": 7.644702887304552, "alt_km": 337.32639618421126, "timestamp": "2025-12-26T08:37:53.294634+00:00", "meta": {"OBJECT_NAME": "STARLINK-36158", "OBJECT_ID": "2025-298F", "EPOCH": "2025-12-26T04:00:01.998720", "MEAN_MOTION": 15.77304936, "ECCENTRICITY": 0.0003536, "INCLINATION": 69.9967, "RA_OF_ASC_NODE": 211.7861, "ARG_OF_PERICENTER": 274.8656, "MEAN_ANOMALY": 198.1204, "EPHEMERIS_TYPE": 0, "CLASSIFICATION_TYPE": "U", "NORAD_CAT_ID": 67080, "ELEMENT_SET_NO": 999, "REV_AT_EPOCH": 307, "BSTAR": -0.012191, "MEAN_MOTION_DOT": -0.01771873, "MEAN_MOTION_DDOT": 0}, "tle": {"line1": "1 67080U 25298F   25360.16668980 -.01771873  00000+0 -12191-1 0  9997", "line2": "2 67080  69.9967 211.7861 0003536 274.8656 198.1204 15.77304936  3070"}}, "geometry": {"type": "Point", "coordinates": [7.644702887304552, 47.69158622332419]}}]}